{
  "type": "FeatureCollection",
  "features": [
    {
      "type": "Feature",
      "properties": {
        "norad_id": 28890,
        "name": "BEIJING 1",
        "group": "dmc",
        "lat": -80.09295967019172,
        "lon": 178.342668077825,
        "alt_km": 699.833093250083,
        "timestamp": "2025-12-20T11:30:28.037537+00:00",
        "meta_object_name": "BEIJING 1",
        "meta_object_id": "2005-043A",
        "meta_epoch": "2025-12-20T05:19:49.930752",
        "meta_mean_motion": 14.63372691,
        "meta_eccentricity": 0.0015669,
        "meta_inclination": 98.2657,
        "meta_ra_of_asc_node": 121.7465,
        "meta_arg_of_pericenter": 119.202,
        "meta_mean_anomaly": 241.0751,
        "meta_ephemeris_type": 0,
        "meta_classification_type": "U",
        "meta_norad_cat_id": 28890,
        "meta_element_set_no": 999,
        "meta_rev_at_epoch": 7447,
        "meta_bstar": 6.79e-05,
        "meta_mean_motion_dot": 3.03e-06,
        "meta_mean_motion_ddot": 0,
        "tle_line1": "1 28890U 05043A   25354.22210568  .00000303  00000+0  67900-4 0  9995",
        "tle_line2": "2 28890  98.2657 121.7465 0015669 119.2020 241.0751 14.63372691 74478"
      },
      "geometry": {
        "type": "Point",
        "coordinates": [
          178.342668077825,
          -80.09295967019172
        ]
      }
    },
    {
      "type": "Feature",
      "properties": {
        "norad_id": 33320,
        "name": "HUANJING 1A (HJ-1A)",
        "group": "dmc",
        "lat": 39.41759362425067,
        "lon": 168.80034836092315,
        "alt_km": 624.4469564059827,
        "timestamp": "2025-12-20T11:30:28.037560+00:00",
        "meta_object_name": "HUANJING 1A (HJ-1A)",
        "meta_object_id": "2008-041A",
        "meta_epoch": "2025-12-20T04:24:13.974912",
        "meta_mean_motion": 14.8341547,
        "meta_eccentricity": 0.0019642,
        "meta_inclination": 97.6535,
        "meta_ra_of_asc_node": 342.1712,
        "meta_arg_of_pericenter": 10.7747,
        "meta_mean_anomaly": 349.3884,
        "meta_ephemeris_type": 0,
        "meta_classification_type": "U",
        "meta_norad_cat_id": 33320,
        "meta_element_set_no": 999,
        "meta_rev_at_epoch": 93186,
        "meta_bstar": 0.00014007,
        "meta_mean_motion_dot": 1.102e-05,
        "meta_mean_motion_ddot": 0,
        "tle_line1": "1 33320U 08041A   25354.18349508  .00001102  00000+0  14007-3 0  9999",
        "tle_line2": "2 33320  97.6535 342.1712 0019642  10.7747 349.3884 14.83415470931869"
      },
      "geometry": {
        "type": "Point",
        "coordinates": [
          168.80034836092315,
          39.41759362425067
        ]
      }
    },
    {
      "type": "Feature",
      "properties": {
        "norad_id": 33321,
        "name": "HUANJING 1B (HJ-1B)",
        "group": "dmc",
        "lat": -15.38888993210102,
        "lon": -11.751189621158062,
        "alt_km": 614.5648014028893,
        "timestamp": "2025-12-20T11:30:28.037575+00:00",
        "meta_object_name": "HUANJING 1B (HJ-1B)",
        "meta_object_id": "2008-041B",
        "meta_epoch": "2025-12-20T05:05:57.708672",
        "meta_mean_motion": 14.82840621,
        "meta_eccentricity": 0.0037997,
        "meta_inclination": 97.6395,
        "meta_ra_of_asc_node": 345.8765,
        "meta_arg_of_pericenter": 52.1734,
        "meta_mean_anomaly": 308.291,
        "meta_ephemeris_type": 0,
        "meta_classification_type": "U",
        "meta_norad_cat_id": 33321,
        "meta_element_set_no": 999,
        "meta_rev_at_epoch": 93188,
        "meta_bstar": 0.0001633,
        "meta_mean_motion_dot": 1.287e-05,
        "meta_mean_motion_ddot": 0,
        "tle_line1": "1 33321U 08041B   25354.21247348  .00001287  00000+0  16330-3 0  9998",
        "tle_line2": "2 33321  97.6395 345.8765 0037997  52.1734 308.2910 14.82840621931886"
      },
      "geometry": {
        "type": "Point",
        "coordinates": [
          -11.751189621158062,
          -15.38888993210102
        ]
      }
    },
    {
      "type": "Feature",
      "properties": {
        "norad_id": 33446,
        "name": "YAOGAN-4",
        "group": "dmc",
        "lat": -71.20843404724367,
        "lon": 80.35556794142907,
        "alt_km": 621.4065750427781,
        "timestamp": "2025-12-20T11:30:28.037587+00:00",
        "meta_object_name": "YAOGAN-4",
        "meta_object_id": "2008-061A",
        "meta_epoch": "2025-12-20T02:16:16.821696",
        "meta_mean_motion": 14.82701971,
        "meta_eccentricity": 0.0013132,
        "meta_inclination": 97.9192,
        "meta_ra_of_asc_node": 284.1219,
        "meta_arg_of_pericenter": 297.4336,
        "meta_mean_anomaly": 62.5541,
        "meta_ephemeris_type": 0,
        "meta_classification_type": "U",
        "meta_norad_cat_id": 33446,
        "meta_element_set_no": 999,
        "meta_rev_at_epoch": 91912,
        "meta_bstar": 0.0001179,
        "meta_mean_motion_dot": 8.99e-06,
        "meta_mean_motion_ddot": 0,
        "tle_line1": "1 33446U 08061A   25354.09463914  .00000899  00000+0  11790-3 0  9996",
        "tle_line2": "2 33446  97.9192 284.1219 0013132 297.4336  62.5541 14.82701971919125"
      },
      "geometry": {
        "type": "Point",
        "coordinates": [
          80.35556794142907,
          -71.20843404724367
        ]
      }
    },
    {
      "type": "Feature",
      "properties": {
        "norad_id": 35681,
        "name": "DEIMOS-1",
        "group": "dmc",
        "lat": 12.307340858011267,
        "lon": -23.583496508357975,
        "alt_km": 646.8845753245032,
        "timestamp": "2025-12-20T11:30:28.037599+00:00",
        "meta_object_name": "DEIMOS-1",
        "meta_object_id": "2009-041A",
        "meta_epoch": "2025-12-20T04:14:19.017600",
        "meta_mean_motion": 14.74963441,
        "meta_eccentricity": 0.00026,
        "meta_inclination": 97.7143,
        "meta_ra_of_asc_node": 154.4332,
        "meta_arg_of_pericenter": 67.8548,
        "meta_mean_anomaly": 292.2937,
        "meta_ephemeris_type": 0,
        "meta_classification_type": "U",
        "meta_norad_cat_id": 35681,
        "meta_element_set_no": 999,
        "meta_rev_at_epoch": 88049,
        "meta_bstar": 8.5242e-05,
        "meta_mean_motion_dot": 5.26e-06,
        "meta_mean_motion_ddot": 0,
        "tle_line1": "1 35681U 09041A   25354.17660900  .00000526  00000+0  85242-4 0  9992",
        "tle_line2": "2 35681  97.7143 154.4332 0002600  67.8548 292.2937 14.74963441880490"
      },
      "geometry": {
        "type": "Point",
        "coordinates": [
          -23.583496508357975,
          12.307340858011267
        ]
      }
    },
    {
      "type": "Feature",
      "properties": {
        "norad_id": 35683,
        "name": "UK-DMC 2",
        "group": "dmc",
        "lat": -21.205373053487772,
        "lon": -53.9071352696898,
        "alt_km": 648.7838808556653,
        "timestamp": "2025-12-20T11:30:28.037609+00:00",
        "meta_object_name": "UK-DMC 2",
        "meta_object_id": "2009-041C",
        "meta_epoch": "2025-12-20T04:05:19.986144",
        "meta_mean_motion": 14.75637212,
        "meta_eccentricity": 0.0001527,
        "meta_inclination": 97.8562,
        "meta_ra_of_asc_node": 128.8634,
        "meta_arg_of_pericenter": 93.6591,
        "meta_mean_anomaly": 266.4793,
        "meta_ephemeris_type": 0,
        "meta_classification_type": "U",
        "meta_norad_cat_id": 35683,
        "meta_element_set_no": 999,
        "meta_rev_at_epoch": 88016,
        "meta_bstar": 0.00013163,
        "meta_mean_motion_dot": 8.49e-06,
        "meta_mean_motion_ddot": 0,
        "tle_line1": "1 35683U 09041C   25354.17037021  .00000849  00000+0  13163-3 0  9996",
        "tle_line2": "2 35683  97.8562 128.8634 0001527  93.6591 266.4793 14.75637212880162"
      },
      "geometry": {
        "type": "Point",
        "coordinates": [
          -53.9071352696898,
          -21.205373053487772
        ]
      }
    },
    {
      "type": "Feature",
      "properties": {
        "norad_id": 40715,
        "name": "DMC3-FM1",
        "group": "dmc",
        "lat": 16.51336275489641,
        "lon": 43.67865467013571,
        "alt_km": 614.594384390809,
        "timestamp": "2025-12-20T11:30:28.037620+00:00",
        "meta_object_name": "DMC3-FM1",
        "meta_object_id": "2015-032A",
        "meta_epoch": "2025-12-20T04:18:29.931840",
        "meta_mean_motion": 14.85451271,
        "meta_eccentricity": 0.0004231,
        "meta_inclination": 97.6689,
        "meta_ra_of_asc_node": 221.1003,
        "meta_arg_of_pericenter": 290.9894,
        "meta_mean_anomaly": 69.0868,
        "meta_ephemeris_type": 0,
        "meta_classification_type": "U",
        "meta_norad_cat_id": 40715,
        "meta_element_set_no": 999,
        "meta_rev_at_epoch": 56333,
        "meta_bstar": 6.9054e-05,
        "meta_mean_motion_dot": 5.44e-06,
        "meta_mean_motion_ddot": 0,
        "tle_line1": "1 40715U 15032A   25354.17951310  .00000544  00000+0  69054-4 0  9994",
        "tle_line2": "2 40715  97.6689 221.1003 0004231 290.9894  69.0868 14.85451271563339"
      },
      "geometry": {
        "type": "Point",
        "coordinates": [
          43.67865467013571,
          16.51336275489641
        ]
      }
    },
    {
      "type": "Feature",
      "properties": {
        "norad_id": 40716,
        "name": "DMC3-FM2",
        "group": "dmc",
        "lat": 42.580118130606294,
        "lon": -144.27926892401806,
        "alt_km": 609.6418353211211,
        "timestamp": "2025-12-20T11:30:28.037631+00:00",
        "meta_object_name": "DMC3-FM2",
        "meta_object_id": "2015-032B",
        "meta_epoch": "2025-12-20T03:13:52.737888",
        "meta_mean_motion": 14.85455854,
        "meta_eccentricity": 0.0004728,
        "meta_inclination": 97.6749,
        "meta_ra_of_asc_node": 222.5064,
        "meta_arg_of_pericenter": 297.4505,
        "meta_mean_anomaly": 62.623,
        "meta_ephemeris_type": 0,
        "meta_classification_type": "U",
        "meta_norad_cat_id": 40716,
        "meta_element_set_no": 999,
        "meta_rev_at_epoch": 56332,
        "meta_bstar": 0.00015633,
        "meta_mean_motion_dot": 1.297e-05,
        "meta_mean_motion_ddot": 0,
        "tle_line1": "1 40716U 15032B   25354.13463817  .00001297  00000+0  15633-3 0  9990",
        "tle_line2": "2 40716  97.6749 222.5064 0004728 297.4505  62.6230 14.85455854563323"
      },
      "geometry": {
        "type": "Point",
        "coordinates": [
          -144.27926892401806,
          42.580118130606294
        ]
      }
    },
    {
      "type": "Feature",
      "properties": {
        "norad_id": 40717,
        "name": "DMC3-FM3",
        "group": "dmc",
        "lat": -71.26545063901919,
        "lon": -112.07605491068821,
        "alt_km": 616.6845166743515,
        "timestamp": "2025-12-20T11:30:28.037641+00:00",
        "meta_object_name": "DMC3-FM3",
        "meta_object_id": "2015-032C",
        "meta_epoch": "2025-12-20T05:22:06.377952",
        "meta_mean_motion": 14.85442323,
        "meta_eccentricity": 0.0004113,
        "meta_inclination": 97.6804,
        "meta_ra_of_asc_node": 224.2304,
        "meta_arg_of_pericenter": 299.8262,
        "meta_mean_anomaly": 60.2544,
        "meta_ephemeris_type": 0,
        "meta_classification_type": "U",
        "meta_norad_cat_id": 40717,
        "meta_element_set_no": 999,
        "meta_rev_at_epoch": 56334,
        "meta_bstar": 9.617e-05,
        "meta_mean_motion_dot": 7.77e-06,
        "meta_mean_motion_ddot": 0,
        "tle_line1": "1 40717U 15032C   25354.22368493  .00000777  00000+0  96170-4 0  9993",
        "tle_line2": "2 40717  97.6804 224.2304 0004113 299.8262  60.2544 14.85442323563347"
      },
      "geometry": {
        "type": "Point",
        "coordinates": [
          -112.07605491068821,
          -71.26545063901919
        ]
      }
    }
  ]
}